GLOBALSTAR M063         
1 26081U 00008A   24145.20391675 -.00000054  00000+0  42275-3 0  9996
2 26081  51.9974  55.9985 0004303 295.5468 232.1568 11.86156089111414
GLOBALSTAR M062         
1 26082U 00008B   24145.23459497 -.00000042  00000+0  39944-3 0  9993
2 26082  51.9819 159.5472 0007010   1.5689  79.0406 12.43436693448231
GLOBALSTAR M060         
1 26083U 00008C   24145.54119347 -.00000182  00000+0 -90561-3 0  9993
2 26083  52.0033  63.6682 0003829  52.5402 359.2549 12.17633159105196
GLOBALSTAR M064         
1 26084U 00008D   24145.43309710 -.00000063  00000+0  28368-3 0  9990
2 26084  52.0000 158.8091 0001332  22.1808 337.9082 11.88519555120879
GLOBALSTAR M065         
1 31571U 07020A   24145.49854243 -.00000060  00000+0  24476-3 0  9993
2 31571  51.9907 329.2734 0010395 163.6240 231.2725 12.61971388784333
GLOBALSTAR M069         
1 31573U 07020C   24145.59115542 -.00000072  00000+0  17965-3 0  9996
2 31573  51.9959 284.8484 0000936 129.7125 326.3166 12.62273680785477
GLOBALSTAR M072         
1 31574U 07020D   24145.12691428 -.00000071  00000+0  18363-3 0  9990
2 31574  52.0107  22.1760 0000955  72.6768  92.7249 12.62263485783684
GLOBALSTAR M071         
1 31576U 07020F   24145.61437251 -.00000073  00000+0  17394-3 0  9993
2 31576  52.0076 289.9250 0000748  90.4563 350.7319 12.62266578446664
